0 COSMOS 839 DEB
1 15523U 76067BH  13286.00203385 -.00000015  00000-0  10410-3 0  5434
2 15523 065.9457 279.6677 0752274 336.7197 020.1211 12.47445330 48104
0 COSMOS 839 DEB
1 15523U 76067BH  13286.00848704 -.00000036  00000-0  53975-4 0  5442
2 15523 065.9343 279.6341 0748284 336.9442 048.9419 12.47444997 48103
0 COSMOS 839 DEB
1 15523U 76067BH  13293.94535884  .00000023  00000-0  19709-3 0  5457
2 15523 065.9352 263.8929 0748867 333.7167 051.8172 12.47445475 49096
